{
    "links": {
        "self": "http://www.neowsapp.com/rest/v1/neo/3567992?api_key=iIulBulltgU6a56xZRHN4H3l9WmuAYTsLGpBGhQ2"
    },
    "id": "3567992",
    "neo_reference_id": "3567992",
    "name": "(2011 LB19)",
    "designation": "2011 LB19",
    "nasa_jpl_url": "http://ssd.jpl.nasa.gov/sbdb.cgi?sstr=3567992",
    "absolute_magnitude_h": 24.1,
    "estimated_diameter": {
        "kilometers": {
            "estimated_diameter_min": 0.040230458,
            "estimated_diameter_max": 0.0899580388
        },
        "meters": {
            "estimated_diameter_min": 40.2304579834,
            "estimated_diameter_max": 89.9580388169
        },
        "miles": {
            "estimated_diameter_min": 0.0249980399,
            "estimated_diameter_max": 0.0558973165
        },
        "feet": {
            "estimated_diameter_min": 131.9896957704,
            "estimated_diameter_max": 295.1379320721
        }
    },
    "is_potentially_hazardous_asteroid": false,
    "close_approach_data": [
        {
            "close_approach_date": "2011-06-12",
            "close_approach_date_full": "2011-Jun-12 14:19",
            "epoch_date_close_approach": 1307888340000,
            "relative_velocity": {
                "kilometers_per_second": "12.9840699924",
                "kilometers_per_hour": "46742.6519725968",
                "miles_per_hour": "29044.0661659727"
            },
            "miss_distance": {
                "astronomical": "0.0811609188",
                "lunar": "31.5715974132",
                "kilometers": "12141500.579722956",
                "miles": "7544378.6227545528"
            },
            "orbiting_body": "Earth"
        },
        {
            "close_approach_date": "2011-10-29",
            "close_approach_date_full": "2011-Oct-29 13:06",
            "epoch_date_close_approach": 1319893560000,
            "relative_velocity": {
                "kilometers_per_second": "12.724126173",
                "kilometers_per_hour": "45806.8542229606",
                "miles_per_hour": "28462.5978364835"
            },
            "miss_distance": {
                "astronomical": "0.4639732473",
                "lunar": "180.4855931997",
                "kilometers": "69409409.533063251",
                "miles": "43129007.1652088238"
            },
            "orbiting_body": "Earth"
        }
    ],
    "orbital_data": {
        "orbit_id": "5",
        "orbit_determination_date": "2017-04-06 08:53:18",
        "first_observation_date": "2011-06-09",
        "last_observation_date": "2011-06-11",
        "data_arc_in_days": 2,
        "observations_used": 25,
        "orbit_uncertainty": "8",
        "minimum_orbit_intersection": ".075286",
        "jupiter_tisserand_invariant": "5.045",
        "epoch_osculation": "2455722.5",
        "eccentricity": ".1508823560575527",
        "semi_major_axis": "1.248874607526016",
        "inclination": "24.91223977652675",
        "ascending_node_longitude": "78.71203079749317",
        "orbital_period": "509.7728247199192",
        "perihelion_distance": "1.060441464322039",
        "perihelion_argument": "218.90845340",
        "aphelion_distance": "1.437307750729993",
        "perihelion_time": "2455765.106471586606",
        "mean_anomaly": "329.9114408862313",
        "mean_motion": ".7061969225169902",
        "equinox": "J2000",
        "orbit_class": {
            "orbit_class_type": "AMO",
            "orbit_class_description": "Near-Earth asteroid orbits similar to that of 1221 Amor",
            "orbit_class_range": "1.017 AU < q (perihelion) < 1.3 AU"
        }
    },
    "is_sentry_object": false
}